{
  "type": "FeatureCollection",
  "features": [
    {
      "type": "Feature",
      "properties": {
        "norad_id": 32153,
        "name": "FENGYUN 1C DEB",
        "group": "fengyun-1c-debris",
        "lat": 55.57475575782675,
        "lon": -167.8531448584955,
        "alt_km": 794.924701261265,
        "timestamp": "2025-12-27T15:27:11.476526+00:00",
        "meta_object_name": "FENGYUN 1C DEB",
        "meta_object_id": "1999-025CSX",
        "meta_epoch": "2025-12-26T07:41:23.857728",
        "meta_mean_motion": 14.48759379,
        "meta_eccentricity": 0.0207722,
        "meta_inclination": 98.7689,
        "meta_ra_of_asc_node": 203.7873,
        "meta_arg_of_pericenter": 180.2083,
        "meta_mean_anomaly": 179.9057,
        "meta_ephemeris_type": 0,
        "meta_classification_type": "U",
        "meta_norad_cat_id": 32153,
        "meta_element_set_no": 999,
        "meta_rev_at_epoch": 97420,
        "meta_bstar": 0.00029228,
        "meta_mean_motion_dot": 1.391e-05,
        "meta_mean_motion_ddot": 0,
        "tle_line1": "1 32153U 99025CSX 25360.32041502  .00001391  00000+0  29228-3 0  9991",
        "tle_line2": "2 32153  98.7689 203.7873 0207722 180.2083 179.9057 14.48759379974202"
      },
      "geometry": {
        "type": "Point",
        "coordinates": [
          -167.8531448584955,
          55.57475575782675
        ]
      }
    },
    {
      "type": "Feature",
      "properties": {
        "norad_id": 32155,
        "name": "FENGYUN 1C DEB",
        "group": "fengyun-1c-debris",
        "lat": -79.29527260025861,
        "lon": -11.725877768419315,
        "alt_km": 780.062272093629,
        "timestamp": "2025-12-27T15:27:11.476536+00:00",
        "meta_object_name": "FENGYUN 1C DEB",
        "meta_object_id": "1999-025CSZ",
        "meta_epoch": "2025-12-22T15:11:27.193632",
        "meta_mean_motion": 14.32975023,
        "meta_eccentricity": 0.00693114,
        "meta_inclination": 98.9542,
        "meta_ra_of_asc_node": 286.5796,
        "meta_arg_of_pericenter": 210.5989,
        "meta_mean_anomaly": 149.1143,
        "meta_ephemeris_type": 0,
        "meta_classification_type": "U",
        "meta_norad_cat_id": 32155,
        "meta_element_set_no": 999,
        "meta_rev_at_epoch": 70364,
        "meta_bstar": 0.00042072892,
        "meta_mean_motion_dot": 1.135e-05,
        "meta_mean_motion_ddot": 0,
        "tle_line1": "1 32155U 99025CSZ 25356.63295363  .00001135  00000+0  42073-3 0  9997",
        "tle_line2": "2 32155  98.9542 286.5796 0069311 210.5989 149.1143 14.32975023703641"
      },
      "geometry": {
        "type": "Point",
        "coordinates": [
          -11.725877768419315,
          -79.29527260025861
        ]
      }
    },
    {
      "type": "Feature",
      "properties": {
        "norad_id": 32156,
        "name": "FENGYUN 1C DEB",
        "group": "fengyun-1c-debris",
        "lat": -47.96717471526326,
        "lon": -18.164698611478382,
        "alt_km": 840.4675991042623,
        "timestamp": "2025-12-27T15:27:11.476546+00:00",
        "meta_object_name": "FENGYUN 1C DEB",
        "meta_object_id": "1999-025CTA",
        "meta_epoch": "2025-12-21T17:31:26.712192",
        "meta_mean_motion": 14.31964818,
        "meta_eccentricity": 0.00820417,
        "meta_inclination": 99.3545,
        "meta_ra_of_asc_node": 166.001,
        "meta_arg_of_pericenter": 31.7205,
        "meta_mean_anomaly": 328.8882,
        "meta_ephemeris_type": 0,
        "meta_classification_type": "U",
        "meta_norad_cat_id": 32156,
        "meta_element_set_no": 999,
        "meta_rev_at_epoch": 64949,
        "meta_bstar": 0.00022590764,
        "meta_mean_motion_dot": 5.78e-06,
        "meta_mean_motion_ddot": 0,
        "tle_line1": "1 32156U 99025CTA 25355.73017028  .00000578  00000+0  22591-3 0  9991",
        "tle_line2": "2 32156  99.3545 166.0010 0082041  31.7205 328.8882 14.31964818649497"
      },
      "geometry": {
        "type": "Point",
        "coordinates": [
          -18.164698611478382,
          -47.96717471526326
        ]
      }
    },
    {
      "type": "Feature",
      "properties": {
        "norad_id": 32160,
        "name": "FENGYUN 1C DEB",
        "group": "fengyun-1c-debris",
        "lat": -23.324908958046677,
        "lon": 163.1686753287499,
        "alt_km": 717.5586373474116,
        "timestamp": "2025-12-27T15:27:11.476557+00:00",
        "meta_object_name": "FENGYUN 1C DEB",
        "meta_object_id": "1999-025CTE",
        "meta_epoch": "2025-12-24T05:42:44.692992",
        "meta_mean_motion": 14.37597741,
        "meta_eccentricity": 0.00816512,
        "meta_inclination": 98.8815,
        "meta_ra_of_asc_node": 155.7856,
        "meta_arg_of_pericenter": 324.8235,
        "meta_mean_anomaly": 34.7576,
        "meta_ephemeris_type": 0,
        "meta_classification_type": "U",
        "meta_norad_cat_id": 32160,
        "meta_element_set_no": 999,
        "meta_rev_at_epoch": 96052,
        "meta_bstar": 0.00043465594,
        "meta_mean_motion_dot": 1.306e-05,
        "meta_mean_motion_ddot": 0,
        "tle_line1": "1 32160U 99025CTE 25358.23801728  .00001306  00000+0  43466-3 0  9996",
        "tle_line2": "2 32160  98.8815 155.7856 0081651 324.8235  34.7576 14.37597741960520"
      },
      "geometry": {
        "type": "Point",
        "coordinates": [
          163.1686753287499,
          -23.324908958046677
        ]
      }
    },
    {
      "type": "Feature",
      "properties": {
        "norad_id": 32161,
        "name": "FENGYUN 1C DEB",
        "group": "fengyun-1c-debris",
        "lat": 21.902370258042545,
        "lon": 102.23058233112566,
        "alt_km": 965.8366784831542,
        "timestamp": "2025-12-27T15:27:11.476567+00:00",
        "meta_object_name": "FENGYUN 1C DEB",
        "meta_object_id": "1999-025CTF",
        "meta_epoch": "2025-12-20T13:45:55.412928",
        "meta_mean_motion": 14.01882373,
        "meta_eccentricity": 0.0135471,
        "meta_inclination": 98.8321,
        "meta_ra_of_asc_node": 98.9655,
        "meta_arg_of_pericenter": 258.2246,
        "meta_mean_anomaly": 100.3696,
        "meta_ephemeris_type": 0,
        "meta_classification_type": "U",
        "meta_norad_cat_id": 32161,
        "meta_element_set_no": 999,
        "meta_rev_at_epoch": 63539,
        "meta_bstar": 0.00038333,
        "meta_mean_motion_dot": 5.88e-06,
        "meta_mean_motion_ddot": 0,
        "tle_line1": "1 32161U 99025CTF 25354.57355802  .00000588  00000+0  38333-3 0  9995",
        "tle_line2": "2 32161  98.8321  98.9655 0135471 258.2246 100.3696 14.01882373635396"
      },
      "geometry": {
        "type": "Point",
        "coordinates": [
          102.23058233112566,
          21.902370258042545
        ]
      }
    },
    {
      "type": "Feature",
      "properties": {
        "norad_id": 32162,
        "name": "FENGYUN 1C DEB",
        "group": "fengyun-1c-debris",
        "lat": 26.647688979517692,
        "lon": 44.13270995147565,
        "alt_km": 690.184382425794,
        "timestamp": "2025-12-27T15:27:11.476579+00:00",
        "meta_object_name": "FENGYUN 1C DEB",
        "meta_object_id": "1999-025CTG",
        "meta_epoch": "2025-12-26T09:46:05.500704",
        "meta_mean_motion": 14.62206559,
        "meta_eccentricity": 0.0047987,
        "meta_inclination": 99.4615,
        "meta_ra_of_asc_node": 47.5182,
        "meta_arg_of_pericenter": 129.9867,
        "meta_mean_anomaly": 230.5558,
        "meta_ephemeris_type": 0,
        "meta_classification_type": "U",
        "meta_norad_cat_id": 32162,
        "meta_element_set_no": 999,
        "meta_rev_at_epoch": 95118,
        "meta_bstar": 0.0012725,
        "meta_mean_motion_dot": 6.459e-05,
        "meta_mean_motion_ddot": 0,
        "tle_line1": "1 32162U 99025CTG 25360.40700811  .00006459  00000+0  12725-2 0  9998",
        "tle_line2": "2 32162  99.4615  47.5182 0047987 129.9867 230.5558 14.62206559951186"
      },
      "geometry": {
        "type": "Point",
        "coordinates": [
          44.13270995147565,
          26.647688979517692
        ]
      }
    },
    {
      "type": "Feature",
      "properties": {
        "norad_id": 32163,
        "name": "FENGYUN 1C DEB",
        "group": "fengyun-1c-debris",
        "lat": -62.69675537458104,
        "lon": 28.278269979398548,
        "alt_km": 734.324292961368,
        "timestamp": "2025-12-27T15:27:11.476590+00:00",
        "meta_object_name": "FENGYUN 1C DEB",
        "meta_object_id": "1999-025CTH",
        "meta_epoch": "2025-12-24T19:31:43.013856",
        "meta_mean_motion": 14.43196985,
        "meta_eccentricity": 0.00511739,
        "meta_inclination": 99.5457,
        "meta_ra_of_asc_node": 6.0859,
        "meta_arg_of_pericenter": 359.6519,
        "meta_mean_anomaly": 0.4623,
        "meta_ephemeris_type": 0,
        "meta_classification_type": "U",
        "meta_norad_cat_id": 32163,
        "meta_element_set_no": 999,
        "meta_rev_at_epoch": 61150,
        "meta_bstar": 0.00093751652,
        "meta_mean_motion_dot": 3.148e-05,
        "meta_mean_motion_ddot": 0,
        "tle_line1": "1 32163U 99025CTH 25358.81369229  .00003148  00000+0  93752-3 0  9997",
        "tle_line2": "2 32163  99.5457   6.0859 0051173 359.6519   0.4623 14.43196985611507"
      },
      "geometry": {
        "type": "Point",
        "coordinates": [
          28.278269979398548,
          -62.69675537458104
        ]
      }
    }
  ]
}